{"type": "FeatureCollection", "features": [ {"type": "Feature", "properties": {"norad_id": 29750, "name": "FENGYUN 1C DEB", "group": "fengyun-1c-debris", "lat": -1.6708213296102088, "lon": 18.756309156218503, "alt_km": 852.81474649133, "timestamp": "2025-12-15T10:55:21.413841+00:00", "meta": {"OBJECT_NAME": "FENGYUN 1C DEB", "OBJECT_ID": "1999-025AQ", "EPOCH": "2025-12-14T20:27:52.904160", "MEAN_MOTION": 14.09645332, "ECCENTRICITY": 0.00350867, "INCLINATION": 98.7547, "RA_OF_ASC_NODE": 17.913, "ARG_OF_PERICENTER": 295.3159, "MEAN_ANOMALY": 247.3698, "EPHEMERIS_TYPE": 0, "CLASSIFICATION_TYPE": "U", "NORAD_CAT_ID": 29750, "ELEMENT_SET_NO": 999, "REV_AT_EPOCH": 97103, "BSTAR": 0.00027271694, "MEAN_MOTION_DOT": 4.37e-06, "MEAN_MOTION_DDOT": 0}, "tle": {"line1": "1 29750U 99025AQ  25348.85269565  .00000437  00000+0  27272-3 0  9992", "line2": "2 29750  98.7547  17.9130 0035086 295.3159 247.3698 14.09645332971038"}}, "geometry": {"type": "Point", "coordinates": [18.756309156218503, -1.6708213296102088]}}, {"type": "Feature", "properties": {"norad_id": 29751, "name": "FENGYUN 1C DEB", "group": "fengyun-1c-debris", "lat": -81.25535955983435, "lon": 94.94801771412058, "alt_km": 870.1323045080808, "timestamp": "2025-12-15T10:55:21.413852+00:00", "meta": {"OBJECT_NAME": "FENGYUN 1C DEB", "OBJECT_ID": "1999-025AR", "EPOCH": "2025-12-14T14:07:16.831200", "MEAN_MOTION": 14.23630729, "ECCENTRICITY": 0.00899788, "INCLINATION": 98.5415, "RA_OF_ASC_NODE": 16.4073, "ARG_OF_PERICENTER": 133.8859, "MEAN_ANOMALY": 17.8383, "EPHEMERIS_TYPE": 0, "CLASSIFICATION_TYPE": "U", "NORAD_CAT_ID": 29751, "ELEMENT_SET_NO": 999, "REV_AT_EPOCH": 98099, "BSTAR": 0.00018781038, "MEAN_MOTION_DOT": 4.05e-06, "MEAN_MOTION_DDOT": 0}, "tle": {"line1": "1 29751U 99025AR  25348.58838925  .00000405  00000+0  18781-3 0  9995", "line2": "2 29751  98.5415  16.4073 0089978 133.8859  17.8383 14.23630729980999"}}, "geometry": {"type": "Point", "coordinates": [94.94801771412058, -81.25535955983435]}}, {"type": "Feature", "properties": {"norad_id": 29754, "name": "FENGYUN 1C DEB", "group": "fengyun-1c-debris", "lat": 1.7776882588522904, "lon": 91.92333882492098, "alt_km": 847.6048160342543, "timestamp": "2025-12-15T10:55:21.413862+00:00", "meta": {"OBJECT_NAME": "FENGYUN 1C DEB", "OBJECT_ID": "1999-025AU", "EPOCH": "2025-12-14T18:42:31.543200", "MEAN_MOTION": 14.19160052, "ECCENTRICITY": 0.00361034, "INCLINATION": 98.884, "RA_OF_ASC_NODE": 91.5244, "ARG_OF_PERICENTER": 233.631, "MEAN_ANOMALY": 278.3908, "EPHEMERIS_TYPE": 0, "CLASSIFICATION_TYPE": "U", "NORAD_CAT_ID": 29754, "ELEMENT_SET_NO": 999, "REV_AT_EPOCH": 97383, "BSTAR": 0.00098597968, "MEAN_MOTION_DOT": 2.032e-05, "MEAN_MOTION_DDOT": 0}, "tle": {"line1": "1 29754U 99025AU  25348.77953175  .00002032  00000+0  98598-3 0  9996", "line2": "2 29754  98.8840  91.5244 0036103 233.6310 278.3908 14.19160052973838"}}, "geometry": {"type": "Point", "coordinates": [91.92333882492098, 1.7776882588522904]}}, {"type": "Feature", "properties": {"norad_id": 29758, "name": "FENGYUN 1C DEB", "group": "fengyun-1c-debris", "lat": 4.962114284351761, "lon": -73.95979774775135, "alt_km": 765.8970513175263, "timestamp": "2025-12-15T10:55:21.413873+00:00", "meta": {"OBJECT_NAME": "FENGYUN 1C DEB", "OBJECT_ID": "1999-025AY", "EPOCH": "2025-12-14T19:48:58.334688", "MEAN_MOTION": 14.41027938, "ECCENTRICITY": 0.00213148, "INCLINATION": 98.8549, "RA_OF_ASC_NODE": 104.6131, "ARG_OF_PERICENTER": 301.0516, "MEAN_ANOMALY": 210.5557, "EPHEMERIS_TYPE": 0, "CLASSIFICATION_TYPE": "U", "NORAD_CAT_ID": 29758, "ELEMENT_SET_NO": 999, "REV_AT_EPOCH": 97701, "BSTAR": 0.0020579231, "MEAN_MOTION_DOT": 6.595e-05, "MEAN_MOTION_DDOT": 0}, "tle": {"line1": "1 29758U 99025AY  25348.82567517  .00006595  00000+0  20579-2 0  9998", "line2": "2 29758  98.8549 104.6131 0021314 301.0516 210.5557 14.41027938977017"}}, "geometry": {"type": "Point", "coordinates": [-73.95979774775135, 4.962114284351761]}}, {"type": "Feature", "properties": {"norad_id": 29760, "name": "FENGYUN 1C DEB", "group": "fengyun-1c-debris", "lat": -59.30186040245886, "lon": 6.601035231046831, "alt_km": 937.1701103724081, "timestamp": "2025-12-15T10:55:21.413883+00:00", "meta": {"OBJECT_NAME": "FENGYUN 1C DEB", "OBJECT_ID": "1999-025BA", "EPOCH": "2025-12-14T21:34:29.438112", "MEAN_MOTION": 14.08289653, "ECCENTRICITY": 0.01309156, "INCLINATION": 98.7622, "RA_OF_ASC_NODE": 351.0043, "ARG_OF_PERICENTER": 167.4847, "MEAN_ANOMALY": 192.9627, "EPHEMERIS_TYPE": 0, "CLASSIFICATION_TYPE": "U", "NORAD_CAT_ID": 29760, "ELEMENT_SET_NO": 999, "REV_AT_EPOCH": 97123, "BSTAR": 9.552961e-05, "MEAN_MOTION_DOT": 1.34e-06, "MEAN_MOTION_DDOT": 0}, "tle": {"line1": "1 29760U 99025BA  25348.89895183  .00000134  00000+0  95530-4 0  9995", "line2": "2 29760  98.7622 351.0043 0130915 167.4847 192.9627 14.08289653971236"}}, "geometry": {"type": "Point", "coordinates": [6.601035231046831, -59.30186040245886]}}, {"type": "Feature", "properties": {"norad_id": 29762, "name": "FENGYUN 1C DEB", "group": "fengyun-1c-debris", "lat": 45.58654085851786, "lon": -36.68677014695408, "alt_km": 780.7298102885034, "timestamp": "2025-12-15T10:55:21.413893+00:00", "meta": {"OBJECT_NAME": "FENGYUN 1C DEB", "OBJECT_ID": "1999-025BC", "EPOCH": "2025-12-14T21:28:51.716928", "MEAN_MOTION": 14.2258728, "ECCENTRICITY": 0.02038635, "INCLINATION": 98.5795, "RA_OF_ASC_NODE": 331.6315, "ARG_OF_PERICENTER": 329.3729, "MEAN_ANOMALY": 88.026, "EPHEMERIS_TYPE": 0, "CLASSIFICATION_TYPE": "U", "NORAD_CAT_ID": 29762, "ELEMENT_SET_NO": 999, "REV_AT_EPOCH": 97979, "BSTAR": 0.00043125378, "MEAN_MOTION_DOT": 1.144e-05, "MEAN_MOTION_DDOT": 0}, "tle": {"line1": "1 29762U 99025BC  25348.89504302  .00001144  00000+0  43125-3 0  9991", "line2": "2 29762  98.5795 331.6315 0203863 329.3729  88.0260 14.22587280979794"}}, "geometry": {"type": "Point", "coordinates": [-36.68677014695408, 45.58654085851786]}}, {"type": "Feature", "properties": {"norad_id": 29763, "name": "FENGYUN 1C DEB", "group": "fengyun-1c-debris", "lat": 54.49444468346619, "lon": 161.2654971695387, "alt_km": 799.3976681431932, "timestamp": "2025-12-15T10:55:21.413903+00:00", "meta": {"OBJECT_NAME": "FENGYUN 1C DEB", "OBJECT_ID": "1999-025BD", "EPOCH": "2025-12-14T20:58:25.171680", "MEAN_MOTION": 14.07878507, "ECCENTRICITY": 0.01274713, "INCLINATION": 98.7611, "RA_OF_ASC_NODE": 328.2184, "ARG_OF_PERICENTER": 174.4725, "MEAN_ANOMALY": 246.969, "EPHEMERIS_TYPE": 0, "CLASSIFICATION_TYPE": "U", "NORAD_CAT_ID": 29763, "ELEMENT_SET_NO": 999, "REV_AT_EPOCH": 97080, "BSTAR": 0.00020553184, "MEAN_MOTION_DOT": 3.33e-06, "MEAN_MOTION_DDOT": 0}, "tle": {"line1": "1 29763U 99025BD  25348.87390245  .00000333  00000+0  20553-3 0  9998", "line2": "2 29763  98.7611 328.2184 0127471 174.4725 246.9690 14.07878507970808"}}, "geometry": {"type": "Point", "coordinates": [161.2654971695387, 54.49444468346619]}}, {"type": "Feature", "properties": {"norad_id": 29765, "name": "FENGYUN 1C DEB", "group": "fengyun-1c-debris", "lat": -47.193514041725756, "lon": 17.217283326587197, "alt_km": 922.6256162492919, "timestamp": "2025-12-15T10:55:21.413914+00:00", "meta": {"OBJECT_NAME": "FENGYUN 1C DEB", "OBJECT_ID": "1999-025BF", "EPOCH": "2025-12-14T20:34:23.441664", "MEAN_MOTION": 14.02153261, "ECCENTRICITY": 0.00599603, "INCLINATION": 98.8303, "RA_OF_ASC_NODE": 6.9765, "ARG_OF_PERICENTER": 86.7315, "MEAN_ANOMALY": 89.5651, "EPHEMERIS_TYPE": 0, "CLASSIFICATION_TYPE": "U", "NORAD_CAT_ID": 29765, "ELEMENT_SET_NO": 999, "REV_AT_EPOCH": 96780, "BSTAR": 8.136695e-06, "MEAN_MOTION_DOT": -2.9e-07, "MEAN_MOTION_DDOT": 0}, "tle": {"line1": "1 29765U 99025BF  25348.85721576 -.00000029  00000+0  81367-5 0  9998", "line2": "2 29765  98.8303   6.9765 0059960  86.7315  89.5651 14.02153261967803"}}, "geometry": {"type": "Point", "coordinates": [17.217283326587197, -47.193514041725756]}}, {"type": "Feature", "properties": {"norad_id": 29766, "name": "FENGYUN 1C DEB", "group": "fengyun-1c-debris", "lat": 52.58324323142141, "lon": -72.58833262843918, "alt_km": 970.3287012889259, "timestamp": "2025-12-15T10:55:21.413924+00:00", "meta": {"OBJECT_NAME": "FENGYUN 1C DEB", "OBJECT_ID": "1999-025BG", "EPOCH": "2025-12-14T19:29:41.811072", "MEAN_MOTION": 13.97062343, "ECCENTRICITY": 0.01459065, "INCLINATION": 98.6853, "RA_OF_ASC_NODE": 298.3296, "ARG_OF_PERICENTER": 282.5407, "MEAN_ANOMALY": 138.5175, "EPHEMERIS_TYPE": 0, "CLASSIFICATION_TYPE": "U", "NORAD_CAT_ID": 29766, "ELEMENT_SET_NO": 999, "REV_AT_EPOCH": 95833, "BSTAR": 0.0014386414, "MEAN_MOTION_DOT": 2.156e-05, "MEAN_MOTION_DDOT": 0}, "tle": {"line1": "1 29766U 99025BG  25348.81228948  .00002156  00000+0  14386-2 0  9996", "line2": "2 29766  98.6853 298.3296 0145906 282.5407 138.5175 13.97062343958339"}}, "geometry": {"type": "Point", "coordinates": [-72.58833262843918, 52.58324323142141]}}, {"type": "Feature", "properties": {"norad_id": 29767, "name": "FENGYUN 1C DEB", "group": "fengyun-1c-debris", "lat": 1.2895351678074312, "lon": -42.29709145393256, "alt_km": 731.373543063637, "timestamp": "2025-12-15T10:55:21.413934+00:00", "meta": {"OBJECT_NAME": "FENGYUN 1C DEB", "OBJECT_ID": "1999-025BH", "EPOCH": "2025-12-14T21:28:21.119232", "MEAN_MOTION": 14.03366221, "ECCENTRICITY": 0.0333293, "INCLINATION": 98.1977, "RA_OF_ASC_NODE": 317.3825, "ARG_OF_PERICENTER": 55.1419, "MEAN_ANOMALY": 359.532, "EPHEMERIS_TYPE": 0, "CLASSIFICATION_TYPE": "U", "NORAD_CAT_ID": 29767, "ELEMENT_SET_NO": 999, "REV_AT_EPOCH": 95630, "BSTAR": 0.0014617273, "MEAN_MOTION_DOT": 3.704e-05, "MEAN_MOTION_DDOT": 0}, "tle": {"line1": "1 29767U 99025BH  25348.89468888  .00003704  00000+0  14617-2 0  9991", "line2": "2 29767  98.1977 317.3825 0333293  55.1419 359.5320 14.03366221956309"}}, "geometry": {"type": "Point", "coordinates": [-42.29709145393256, 1.2895351678074312]}}]}